{"type": "FeatureCollection", "features": [{"type": "Feature", "properties": {"norad_id": 26766, "name": "INTELSAT 10 (IS-10)", "group": "intelsat", "lat": 7.619940468028999, "lon": 179.3079624910147, "alt_km": 36131.723287325236, "timestamp": "2025-12-10T20:49:52.228211+00:00", "meta": {"OBJECT_NAME": "INTELSAT 10 (IS-10)", "OBJECT_ID": "2001-019A", "EPOCH": "2025-12-10T09:00:59.362848", "MEAN_MOTION": 0.99078972, "ECCENTRICITY": 0.00078132, "INCLINATION": 8.6245, "RA_OF_ASC_NODE": 61.1809, "ARG_OF_PERICENTER": 223.4667, "MEAN_ANOMALY": 78.8791, "EPHEMERIS_TYPE": 0, "CLASSIFICATION_TYPE": "U", "NORAD_CAT_ID": 26766, "ELEMENT_SET_NO": 999, "REV_AT_EPOCH": 4370, "BSTAR": 0, "MEAN_MOTION_DOT": -2.87e-06, "MEAN_MOTION_DDOT": 0}, "tle": {"line1": "1 26766U 01019A   25344.37568707 -.00000287  00000+0  00000+0 0  9995", "line2": "2 26766   8.6245  61.1809 0007813 223.4667  78.8791  0.99078972 43703"}}, "geometry": {"type": "Point", "coordinates": [179.3079624910147, 7.619940468028999]}}, {"type": "Feature", "properties": {"norad_id": 26900, "name": "INTELSAT 902 (IS-902)", "group": "intelsat", "lat": -5.641781471026067, "lon": -17.86311906668384, "alt_km": 35789.04098523526, "timestamp": "2025-12-10T20:49:52.228236+00:00", "meta": {"OBJECT_NAME": "INTELSAT 902 (IS-902)", "OBJECT_ID": "2001-039A", "EPOCH": "2025-12-01T16:59:59.311968", "MEAN_MOTION": 1.00270327, "ECCENTRICITY": 0.00043097, "INCLINATION": 5.6187, "RA_OF_ASC_NODE": 74.2002, "ARG_OF_PERICENTER": 175.119, "MEAN_ANOMALY": 26.3816, "EPHEMERIS_TYPE": 0, "CLASSIFICATION_TYPE": "U", "NORAD_CAT_ID": 26900, "ELEMENT_SET_NO": 999, "REV_AT_EPOCH": 8871, "BSTAR": 0, "MEAN_MOTION_DOT": -2.63e-06, "MEAN_MOTION_DDOT": 0}, "tle": {"line1": "1 26900U 01039A   25335.70832537 -.00000263  00000+0  00000+0 0  9993", "line2": "2 26900   5.6187  74.2002 0004309 175.1190  26.3816  1.00270327 88713"}}, "geometry": {"type": "Point", "coordinates": [-17.86311906668384, -5.641781471026067]}}, {"type": "Feature", "properties": {"norad_id": 27380, "name": "INTELSAT 904 (IS-904)", "group": "intelsat", "lat": -6.082502882175003, "lon": 0.926382721481777, "alt_km": 35784.518431761695, "timestamp": "2025-12-10T20:49:52.228253+00:00", "meta": {"OBJECT_NAME": "INTELSAT 904 (IS-904)", "OBJECT_ID": "2002-007A", "EPOCH": "2025-12-10T03:07:08.031648", "MEAN_MOTION": 1.00273003, "ECCENTRICITY": 0.00015187, "INCLINATION": 6.4486, "RA_OF_ASC_NODE": 71.4616, "ARG_OF_PERICENTER": 218.4638, "MEAN_ANOMALY": 164.4527, "EPHEMERIS_TYPE": 0, "CLASSIFICATION_TYPE": "U", "NORAD_CAT_ID": 27380, "ELEMENT_SET_NO": 999, "REV_AT_EPOCH": 4987, "BSTAR": 0, "MEAN_MOTION_DOT": -2.23e-06, "MEAN_MOTION_DDOT": 0}, "tle": {"line1": "1 27380U 02007A   25344.12995407 -.00000223  00000+0  00000+0 0  9990", "line2": "2 27380   6.4486  71.4616 0001518 218.4638 164.4527  1.00273003 49875"}}, "geometry": {"type": "Point", "coordinates": [0.926382721481777, -6.082502882175003]}}, {"type": "Feature", "properties": {"norad_id": 27426, "name": "DIRECTV 5 (TEMPO 1)", "group": "intelsat", "lat": -1.840955243944956, "lon": -77.87273327098107, "alt_km": 35771.3218908277, "timestamp": "2025-12-10T20:49:52.228267+00:00", "meta": {"OBJECT_NAME": "DIRECTV 5 (TEMPO 1)", "OBJECT_ID": "2002-023A", "EPOCH": "2025-12-10T12:51:09.349632", "MEAN_MOTION": 1.00272323, "ECCENTRICITY": 0.00035832, "INCLINATION": 4.3969, "RA_OF_ASC_NODE": 77.6765, "ARG_OF_PERICENTER": 192.9498, "MEAN_ANOMALY": 251.547, "EPHEMERIS_TYPE": 0, "CLASSIFICATION_TYPE": "U", "NORAD_CAT_ID": 27426, "ELEMENT_SET_NO": 999, "REV_AT_EPOCH": 8623, "BSTAR": 0, "MEAN_MOTION_DOT": -5.3e-07, "MEAN_MOTION_DDOT": 0}, "tle": {"line1": "1 27426U 02023A   25344.53552488 -.00000053  00000+0  00000+0 0  9993", "line2": "2 27426   4.3969  77.6765 0003583 192.9498 251.5470  1.00272323 86236"}}, "geometry": {"type": "Point", "coordinates": [-77.87273327098107, -1.840955243944956]}}, {"type": "Feature", "properties": {"norad_id": 27438, "name": "INTELSAT 905 (IS-905)", "group": "intelsat", "lat": -0.34856016674539286, "lon": -104.91883588839231, "alt_km": 35774.298768627465, "timestamp": "2025-12-10T20:49:52.228280+00:00", "meta": {"OBJECT_NAME": "INTELSAT 905 (IS-905)", "OBJECT_ID": "2002-027A", "EPOCH": "2025-12-10T10:38:24.492192", "MEAN_MOTION": 1.00272307, "ECCENTRICITY": 0.00027995, "INCLINATION": 6.2803, "RA_OF_ASC_NODE": 72.0822, "ARG_OF_PERICENTER": 193.4676, "MEAN_ANOMALY": 196.2661, "EPHEMERIS_TYPE": 0, "CLASSIFICATION_TYPE": "U", "NORAD_CAT_ID": 27438, "ELEMENT_SET_NO": 999, "REV_AT_EPOCH": 4947, "BSTAR": 0, "MEAN_MOTION_DOT": 9.7e-07, "MEAN_MOTION_DDOT": 0}, "tle": {"line1": "1 27438U 02027A   25344.44333903  .00000097  00000+0  00000+0 0  9996", "line2": "2 27438   6.2803  72.0822 0002799 193.4676 196.2661  1.00272307 49476"}}, "geometry": {"type": "Point", "coordinates": [-104.91883588839231, -0.34856016674539286]}}, {"type": "Feature", "properties": {"norad_id": 27445, "name": "GALAXY 3C (G-3C)", "group": "intelsat", "lat": -1.9725225491070901, "lon": -62.59241187767593, "alt_km": 35789.0199093328, "timestamp": "2025-12-10T20:49:52.228292+00:00", "meta": {"OBJECT_NAME": "GALAXY 3C (G-3C)", "OBJECT_ID": "2002-030A", "EPOCH": "2025-12-10T12:09:57.139776", "MEAN_MOTION": 1.00271053, "ECCENTRICITY": 0.00011096, "INCLINATION": 3.259, "RA_OF_ASC_NODE": 80.5266, "ARG_OF_PERICENTER": 95.032, "MEAN_ANOMALY": 351.5472, "EPHEMERIS_TYPE": 0, "CLASSIFICATION_TYPE": "U", "NORAD_CAT_ID": 27445, "ELEMENT_SET_NO": 999, "REV_AT_EPOCH": 4460, "BSTAR": 0, "MEAN_MOTION_DOT": -1.49e-06, "MEAN_MOTION_DDOT": 0}, "tle": {"line1": "1 27445U 02030A   25344.50691134 -.00000149  00000+0  00000+0 0  9997", "line2": "2 27445   3.2590  80.5266 0001109  95.0320 351.5472  1.00271053 44600"}}, "geometry": {"type": "Point", "coordinates": [-62.59241187767593, -1.9725225491070901]}}, {"type": "Feature", "properties": {"norad_id": 27513, "name": "INTELSAT 906 (IS-906)", "group": "intelsat", "lat": 1.9383896766544577, "lon": 96.34040982323272, "alt_km": 35811.44103625457, "timestamp": "2025-12-10T20:49:52.228304+00:00", "meta": {"OBJECT_NAME": "INTELSAT 906 (IS-906)", "OBJECT_ID": "2002-041A", "EPOCH": "2025-12-09T20:43:37.286400", "MEAN_MOTION": 1.00271049, "ECCENTRICITY": 0.00061202, "INCLINATION": 5.3215, "RA_OF_ASC_NODE": 75.2657, "ARG_OF_PERICENTER": 190.4585, "MEAN_ANOMALY": 188.1629, "EPHEMERIS_TYPE": 0, "CLASSIFICATION_TYPE": "U", "NORAD_CAT_ID": 27513, "ELEMENT_SET_NO": 999, "REV_AT_EPOCH": 8513, "BSTAR": 0, "MEAN_MOTION_DOT": 1.5e-07, "MEAN_MOTION_DDOT": 0}, "tle": {"line1": "1 27513U 02041A   25343.86362600  .00000015  00000+0  00000+0 0  9997", "line2": "2 27513   5.3215  75.2657 0006120 190.4585 188.1629  1.00271049 85135"}}, "geometry": {"type": "Point", "coordinates": [96.34040982323272, 1.9383896766544577]}}, {"type": "Feature", "properties": {"norad_id": 27954, "name": "GALAXY 13 (HORIZONS-1)", "group": "intelsat", "lat": 0.36249068094878045, "lon": -117.69896897974097, "alt_km": 35777.847688363334, "timestamp": "2025-12-10T20:49:52.228316+00:00", "meta": {"OBJECT_NAME": "GALAXY 13 (HORIZONS-1)", "OBJECT_ID": "2003-044A", "EPOCH": "2025-12-10T11:00:23.835744", "MEAN_MOTION": 1.00270524, "ECCENTRICITY": 0.00020288, "INCLINATION": 0.9296, "RA_OF_ASC_NODE": 86.5003, "ARG_OF_PERICENTER": 164.0767, "MEAN_ANOMALY": 203.9566, "EPHEMERIS_TYPE": 0, "CLASSIFICATION_TYPE": "U", "NORAD_CAT_ID": 27954, "ELEMENT_SET_NO": 999, "REV_AT_EPOCH": 4468, "BSTAR": 0, "MEAN_MOTION_DOT": 1.37e-06, "MEAN_MOTION_DDOT": 0}, "tle": {"line1": "1 27954U 03044A   25344.45860921  .00000137  00000+0  00000+0 0  9990", "line2": "2 27954   0.9296  86.5003 0002028 164.0767 203.9566  1.00270524 44684"}}, "geometry": {"type": "Point", "coordinates": [-117.69896897974097, 0.36249068094878045]}}, {"type": "Feature", "properties": {"norad_id": 28358, "name": "INTELSAT 10-02", "group": "intelsat", "lat": -0.0030996842291458816, "lon": 31.409520904329668, "alt_km": 35789.43180829582, "timestamp": "2025-12-10T20:49:52.228328+00:00", "meta": {"OBJECT_NAME": "INTELSAT 10-02", "OBJECT_ID": "2004-022A", "EPOCH": "2025-12-09T23:46:38.709984", "MEAN_MOTION": 1.00289796, "ECCENTRICITY": 0.00023988, "INCLINATION": 0.028, "RA_OF_ASC_NODE": 69.1558, "ARG_OF_PERICENTER": 175.9009, "MEAN_ANOMALY": 189.6126, "EPHEMERIS_TYPE": 0, "CLASSIFICATION_TYPE": "U", "NORAD_CAT_ID": 28358, "ELEMENT_SET_NO": 999, "REV_AT_EPOCH": 7865, "BSTAR": 0, "MEAN_MOTION_DOT": -4e-08, "MEAN_MOTION_DDOT": 0}, "tle": {"line1": "1 28358U 04022A   25343.99072581 -.00000004  00000+0  00000+0 0  9995", "line2": "2 28358   0.0280  69.1558 0002398 175.9009 189.6126  1.00289796 78656"}}, "geometry": {"type": "Point", "coordinates": [31.409520904329668, -0.0030996842291458816]}}, {"type": "Feature", "properties": {"norad_id": 28626, "name": "XM-3 (RHYTHM)", "group": "intelsat", "lat": 0.16418661509902724, "lon": 155.5169813410218, "alt_km": 36165.74319306331, "timestamp": "2025-12-10T20:49:52.228340+00:00", "meta": {"OBJECT_NAME": "XM-3 (RHYTHM)", "OBJECT_ID": "2005-008A", "EPOCH": "2025-12-10T14:48:38.583072", "MEAN_MOTION": 0.98953298, "ECCENTRICITY": 0.00014328, "INCLINATION": 0.1694, "RA_OF_ASC_NODE": 81.3085, "ARG_OF_PERICENTER": 266.8188, "MEAN_ANOMALY": 78.0262, "EPHEMERIS_TYPE": 0, "CLASSIFICATION_TYPE": "U", "NORAD_CAT_ID": 28626, "ELEMENT_SET_NO": 999, "REV_AT_EPOCH": 4072, "BSTAR": 0, "MEAN_MOTION_DOT": -2.13e-06, "MEAN_MOTION_DDOT": 0}, "tle": {"line1": "1 28626U 05008A   25344.61711323 -.00000213  00000+0  00000+0 0  9994", "line2": "2 28626   0.1694  81.3085 0001432 266.8188  78.0262  0.98953298 40721"}}, "geometry": {"type": "Point", "coordinates": [155.5169813410218, 0.16418661509902724]}}]}